{
    "links": {
        "self": "http://www.neowsapp.com/rest/v1/neo/3748363?api_key=iIulBulltgU6a56xZRHN4H3l9WmuAYTsLGpBGhQ2"
    },
    "id": "3748363",
    "neo_reference_id": "3748363",
    "name": "(2016 FD12)",
    "designation": "2016 FD12",
    "nasa_jpl_url": "http://ssd.jpl.nasa.gov/sbdb.cgi?sstr=3748363",
    "absolute_magnitude_h": 25.4,
    "estimated_diameter": {
        "kilometers": {
            "estimated_diameter_min": 0.022108281,
            "estimated_diameter_max": 0.0494356193
        },
        "meters": {
            "estimated_diameter_min": 22.1082810359,
            "estimated_diameter_max": 49.435619262
        },
        "miles": {
            "estimated_diameter_min": 0.0137374447,
            "estimated_diameter_max": 0.0307178602
        },
        "feet": {
            "estimated_diameter_min": 72.5337327539,
            "estimated_diameter_max": 162.1903570994
        }
    },
    "is_potentially_hazardous_asteroid": false,
    "close_approach_data": [
        {
            "close_approach_date": "2016-05-01",
            "close_approach_date_full": "2016-May-01 05:04",
            "epoch_date_close_approach": 1462079040000,
            "relative_velocity": {
                "kilometers_per_second": "5.677896405",
                "kilometers_per_hour": "20440.4270578965",
                "miles_per_hour": "12700.8864682802"
            },
            "miss_distance": {
                "astronomical": "0.1167444039",
                "lunar": "45.4135731171",
                "kilometers": "17464714.157859693",
                "miles": "10852070.1605140434"
            },
            "orbiting_body": "Earth"
        },
        {
            "close_approach_date": "2123-05-08",
            "close_approach_date_full": "2123-May-08 13:26",
            "epoch_date_close_approach": 4839225960000,
            "relative_velocity": {
                "kilometers_per_second": "5.7684728917",
                "kilometers_per_hour": "20766.5024102561",
                "miles_per_hour": "12903.4970115283"
            },
            "miss_distance": {
                "astronomical": "0.1336803593",
                "lunar": "52.0016597677",
                "kilometers": "19998297.012114691",
                "miles": "12426365.5451010958"
            },
            "orbiting_body": "Earth"
        }
    ],
    "orbital_data": {
        "orbit_id": "9",
        "orbit_determination_date": "2017-04-06 08:27:14",
        "first_observation_date": "2016-03-28",
        "last_observation_date": "2016-04-29",
        "data_arc_in_days": 32,
        "observations_used": 30,
        "orbit_uncertainty": "7",
        "minimum_orbit_intersection": ".11379",
        "jupiter_tisserand_invariant": "3.667",
        "epoch_osculation": "2459000.5",
        "eccentricity": ".4525262722309039",
        "semi_major_axis": "2.03233693590658",
        "inclination": "6.748550885855537",
        "ascending_node_longitude": "200.1245940362883",
        "orbital_period": "1058.25905227458",
        "perihelion_distance": "1.112651078383598",
        "perihelion_argument": "23.35261783632818",
        "aphelion_distance": "2.952022793429562",
        "perihelion_time": "2458572.174861044359",
        "mean_anomaly": "145.7082268208392",
        "mean_motion": ".3401813565650398",
        "equinox": "J2000",
        "orbit_class": {
            "orbit_class_type": "AMO",
            "orbit_class_description": "Near-Earth asteroid orbits similar to that of 1221 Amor",
            "orbit_class_range": "1.017 AU < q (perihelion) < 1.3 AU"
        }
    },
    "is_sentry_object": false
}